[{"OBJECT_NAME":"STARLINK-5488","OBJECT_ID":"2023-094AJ","EPOCH":"2026-01-03T09:00:32.746464","MEAN_MOTION":15.02531423,"ECCENTRICITY":0.0001256,"INCLINATION":43.0077,"RA_OF_ASC_NODE":12.3405,"ARG_OF_PERICENTER":266.3062,"MEAN_ANOMALY":93.7637,"EPHEMERIS_TYPE":0,"CLASSIFICATION_TYPE":"U","NORAD_CAT_ID":57250,"ELEMENT_SET_NO":999,"REV_AT_EPOCH":13744,"BSTAR":8.4796e-5,"MEAN_MOTION_DOT":9.42e-6,"MEAN_MOTION_DDOT":0},{"OBJECT_NAME":"STARLINK-5513","OBJECT_ID":"2023-094AK","EPOCH":"2026-01-03T10:45:50.817312","MEAN_MOTION":15.02566905,"ECCENTRICITY":0.0001273,"INCLINATION":43.0072,"RA_OF_ASC_NODE":12.0306,"ARG_OF_PERICENTER":263.2567,"MEAN_ANOMALY":96.8131,"EPHEMERIS_TYPE":0,"CLASSIFICATION_TYPE":"U","NORAD_CAT_ID":57251,"ELEMENT_SET_NO":999,"REV_AT_EPOCH":13745,"BSTAR":-0.00040412,"MEAN_MOTION_DOT":-5.663e-5,"MEAN_MOTION_DDOT":0},{"OBJECT_NAME":"STARLINK-5511","OBJECT_ID":"2023-094AL","EPOCH":"2026-01-03T08:49:21.115200","MEAN_MOTION":15.02535568,"ECCENTRICITY":0.0001509,"INCLINATION":43.0056,"RA_OF_ASC_NODE":12.2789,"ARG_OF_PERICENTER":264.5423,"MEAN_ANOMALY":95.5247,"EPHEMERIS_TYPE":0,"CLASSIFICATION_TYPE":"U","NORAD_CAT_ID":57252,"ELEMENT_SET_NO":999,"REV_AT_EPOCH":13744,"BSTAR":4.2591e-5,"MEAN_MOTION_DOT":3.72e-6,"MEAN_MOTION_DDOT":0},{"OBJECT_NAME":"STARLINK-5516","OBJECT_ID":"2023-094AM","EPOCH":"2026-01-03T10:44:16.276704","MEAN_MOTION":15.0253584,"ECCENTRICITY":6.58e-5,"INCLINATION":43.0018,"RA_OF_ASC_NODE":12.0183,"ARG_OF_PERICENTER":317.3049,"MEAN_ANOMALY":42.7742,"EPHEMERIS_TYPE":0,"CLASSIFICATION_TYPE":"U","NORAD_CAT_ID":57253,"ELEMENT_SET_NO":999,"REV_AT_EPOCH":13745,"BSTAR":-3.2239e-5,"MEAN_MOTION_DOT":-6.39e-6,"MEAN_MOTION_DDOT":0},{"OBJECT_NAME":"STARLINK-5490","OBJECT_ID":"2023-094AN","EPOCH":"2026-01-03T08:41:21.591744","MEAN_MOTION":15.02539496,"ECCENTRICITY":0.0001216,"INCLINATION":43.0049,"RA_OF_ASC_NODE":12.2363,"ARG_OF_PERICENTER":265.8027,"MEAN_ANOMALY":94.2676,"EPHEMERIS_TYPE":0,"CLASSIFICATION_TYPE":"U","NORAD_CAT_ID":57254,"ELEMENT_SET_NO":999,"REV_AT_EPOCH":13744,"BSTAR":7.9953e-5,"MEAN_MOTION_DOT":8.77e-6,"MEAN_MOTION_DDOT":0},{"OBJECT_NAME":"STARLINK-5481","OBJECT_ID":"2023-094AP","EPOCH":"2026-01-03T02:21:39.177504","MEAN_MOTION":15.02532904,"ECCENTRICITY":0.00012788,"INCLINATION":43.0058,"RA_OF_ASC_NODE":13.6996,"ARG_OF_PERICENTER":273.2373,"MEAN_ANOMALY":86.8323,"EPHEMERIS_TYPE":0,"CLASSIFICATION_TYPE":"U","NORAD_CAT_ID":57255,"ELEMENT_SET_NO":999,"REV_AT_EPOCH":13740,"BSTAR":8.3188988e-5,"MEAN_MOTION_DOT":9.2e-6,"MEAN_MOTION_DDOT":0},{"OBJECT_NAME":"STARLINK-5512","OBJECT_ID":"2023-094AQ","EPOCH":"2026-01-03T09:51:31.485312","MEAN_MOTION":15.02527872,"ECCENTRICITY":0.0001525,"INCLINATION":43.008,"RA_OF_ASC_NODE":11.7622,"ARG_OF_PERICENTER":261.1532,"MEAN_ANOMALY":98.9137,"EPHEMERIS_TYPE":0,"CLASSIFICATION_TYPE":"U","NORAD_CAT_ID":57256,"ELEMENT_SET_NO":999,"REV_AT_EPOCH":13745,"BSTAR":0.00020082,"MEAN_MOTION_DOT":2.509e-5,"MEAN_MOTION_DDOT":0},{"OBJECT_NAME":"STARLINK-5503","OBJECT_ID":"2023-094AR","EPOCH":"2026-01-03T10:29:52.579104","MEAN_MOTION":15.02524728,"ECCENTRICITY":0.0001457,"INCLINATION":43.0066,"RA_OF_ASC_NODE":11.9432,"ARG_OF_PERICENTER":272.8745,"MEAN_ANOMALY":87.193,"EPHEMERIS_TYPE":0,"CLASSIFICATION_TYPE":"U","NORAD_CAT_ID":57257,"ELEMENT_SET_NO":999,"REV_AT_EPOCH":13811,"BSTAR":0.00013019,"MEAN_MOTION_DOT":1.555e-5,"MEAN_MOTION_DDOT":0},{"OBJECT_NAME":"STARLINK-5476","OBJECT_ID":"2023-094AS","EPOCH":"2026-01-03T10:12:18.117216","MEAN_MOTION":15.02534381,"ECCENTRICITY":0.0001145,"INCLINATION":43.0049,"RA_OF_ASC_NODE":11.8496,"ARG_OF_PERICENTER":266.8237,"MEAN_ANOMALY":93.2475,"EPHEMERIS_TYPE":0,"CLASSIFICATION_TYPE":"U","NORAD_CAT_ID":57258,"ELEMENT_SET_NO":999,"REV_AT_EPOCH":13745,"BSTAR":4.1926e-5,"MEAN_MOTION_DOT":3.63e-6,"MEAN_MOTION_DDOT":0},{"OBJECT_NAME":"STARLINK-5026","OBJECT_ID":"2023-094AU","EPOCH":"2026-01-03T10:02:42.383904","MEAN_MOTION":15.02535317,"ECCENTRICITY":0.0001416,"INCLINATION":43.0067,"RA_OF_ASC_NODE":11.7997,"ARG_OF_PERICENTER":275.4331,"MEAN_ANOMALY":84.635,"EPHEMERIS_TYPE":0,"CLASSIFICATION_TYPE":"U","NORAD_CAT_ID":57260,"ELEMENT_SET_NO":999,"REV_AT_EPOCH":13809,"BSTAR":8.7728e-5,"MEAN_MOTION_DOT":9.81e-6,"MEAN_MOTION_DDOT":0},{"OBJECT_NAME":"STARLINK-5485","OBJECT_ID":"2023-094AV","EPOCH":"2026-01-03T10:02:20.440032","MEAN_MOTION":15.02530137,"ECCENTRICITY":0.000143,"INCLINATION":43.0062,"RA_OF_ASC_NODE":24.8068,"ARG_OF_PERICENTER":277.8241,"MEAN_ANOMALY":82.2439,"EPHEMERIS_TYPE":0,"CLASSIFICATION_TYPE":"U","NORAD_CAT_ID":57261,"ELEMENT_SET_NO":999,"REV_AT_EPOCH":13730,"BSTAR":1.4506e-5,"MEAN_MOTION_DOT":-8.0e-8,"MEAN_MOTION_DDOT":0},{"OBJECT_NAME":"STARLINK-5504","OBJECT_ID":"2023-094AW","EPOCH":"2026-01-03T10:15:29.768832","MEAN_MOTION":15.02524639,"ECCENTRICITY":0.0001339,"INCLINATION":43.008,"RA_OF_ASC_NODE":11.8697,"ARG_OF_PERICENTER":268.0627,"MEAN_ANOMALY":92.0062,"EPHEMERIS_TYPE":0,"CLASSIFICATION_TYPE":"U","NORAD_CAT_ID":57262,"ELEMENT_SET_NO":999,"REV_AT_EPOCH":13745,"BSTAR":0.00025875,"MEAN_MOTION_DOT":3.292e-5,"MEAN_MOTION_DDOT":0},{"OBJECT_NAME":"STARLINK-5509","OBJECT_ID":"2023-094AX","EPOCH":"2026-01-03T10:00:44.383968","MEAN_MOTION":15.02547523,"ECCENTRICITY":0.0001413,"INCLINATION":43.0057,"RA_OF_ASC_NODE":24.7977,"ARG_OF_PERICENTER":283.2792,"MEAN_ANOMALY":76.7893,"EPHEMERIS_TYPE":0,"CLASSIFICATION_TYPE":"U","NORAD_CAT_ID":57263,"ELEMENT_SET_NO":999,"REV_AT_EPOCH":13730,"BSTAR":0.00015934,"MEAN_MOTION_DOT":1.95e-5,"MEAN_MOTION_DDOT":0},{"OBJECT_NAME":"STARLINK-5858","OBJECT_ID":"2023-094AY","EPOCH":"2026-01-03T09:56:18.968352","MEAN_MOTION":15.02535128,"ECCENTRICITY":0.0001735,"INCLINATION":43.0068,"RA_OF_ASC_NODE":11.7668,"ARG_OF_PERICENTER":278.6466,"MEAN_ANOMALY":81.418,"EPHEMERIS_TYPE":0,"CLASSIFICATION_TYPE":"U","NORAD_CAT_ID":57264,"ELEMENT_SET_NO":999,"REV_AT_EPOCH":13745,"BSTAR":9.5528e-6,"MEAN_MOTION_DOT":-7.5e-7,"MEAN_MOTION_DDOT":0},{"OBJECT_NAME":"STARLINK-5890","OBJECT_ID":"2023-094AZ","EPOCH":"2026-01-03T12:00:01.999296","MEAN_MOTION":15.44936469,"ECCENTRICITY":0.0001948,"INCLINATION":43.0026,"RA_OF_ASC_NODE":4.0399,"ARG_OF_PERICENTER":295.2016,"MEAN_ANOMALY":1.6204,"EPHEMERIS_TYPE":0,"CLASSIFICATION_TYPE":"U","NORAD_CAT_ID":57265,"ELEMENT_SET_NO":999,"REV_AT_EPOCH":563,"BSTAR":0.023747,"MEAN_MOTION_DOT":0.01266724,"MEAN_MOTION_DDOT":0},{"OBJECT_NAME":"STARLINK-30198","OBJECT_ID":"2023-096A","EPOCH":"2026-01-03T06:43:24.675744","MEAN_MOTION":15.02536336,"ECCENTRICITY":0.0001066,"INCLINATION":43.0025,"RA_OF_ASC_NODE":218.968,"ARG_OF_PERICENTER":272.3236,"MEAN_ANOMALY":87.7484,"EPHEMERIS_TYPE":0,"CLASSIFICATION_TYPE":"U","NORAD_CAT_ID":57290,"ELEMENT_SET_NO":999,"REV_AT_EPOCH":13777,"BSTAR":6.1718e-5,"MEAN_MOTION_DOT":6.3e-6,"MEAN_MOTION_DDOT":0},{"OBJECT_NAME":"STARLINK-30239","OBJECT_ID":"2023-096B","EPOCH":"2026-01-03T06:38:36.856608","MEAN_MOTION":15.02537356,"ECCENTRICITY":0.0001143,"INCLINATION":43.003,"RA_OF_ASC_NODE":218.9392,"ARG_OF_PERICENTER":266.0073,"MEAN_ANOMALY":94.0638,"EPHEMERIS_TYPE":0,"CLASSIFICATION_TYPE":"U","NORAD_CAT_ID":57291,"ELEMENT_SET_NO":999,"REV_AT_EPOCH":13777,"BSTAR":7.4031e-5,"MEAN_MOTION_DOT":7.97e-6,"MEAN_MOTION_DDOT":0}]
