STARLINK-5488           
1 57250U 23094AJ  26003.37537901  .00000942  00000+0  84796-4 0  9995
2 57250  43.0077  12.3405 0001256 266.3062  93.7637 15.02531423137446
STARLINK-5513           
1 57251U 23094AK  26003.44850483 -.00005663  00000+0 -40412-3 0  9990
2 57251  43.0072  12.0306 0001273 263.2567  96.8131 15.02566905137451
STARLINK-5511           
1 57252U 23094AL  26003.36760550  .00000372  00000+0  42591-4 0  9998
2 57252  43.0056  12.2789 0001509 264.5423  95.5247 15.02535568137442
STARLINK-5516           
1 57253U 23094AM  26003.44741061 -.00000639  00000+0 -32239-4 0  9990
2 57253  43.0018  12.0183 0000658 317.3049  42.7742 15.02535840137450
STARLINK-5490           
1 57254U 23094AN  26003.36205546  .00000877  00000+0  79953-4 0  9991
2 57254  43.0049  12.2363 0001216 265.8027  94.2676 15.02539496137449
STARLINK-5481           
1 57255U 23094AP  26003.09837011  .00000920  00000+0  83189-4 0  9995
2 57255  43.0058  13.6996 0001278 273.2373  86.8323 15.02532904137401
STARLINK-5512           
1 57256U 23094AQ  26003.41078108  .00002509  00000+0  20082-3 0  9993
2 57256  43.0080  11.7622 0001525 261.1532  98.9137 15.02527872137450
STARLINK-5503           
1 57257U 23094AR  26003.43741411  .00001555  00000+0  13019-3 0  9992
2 57257  43.0066  11.9432 0001457 272.8745  87.1930 15.02524728138117
STARLINK-5476           
1 57258U 23094AS  26003.42520969  .00000363  00000+0  41926-4 0  9990
2 57258  43.0049  11.8496 0001145 266.8237  93.2475 15.02534381137455
STARLINK-5026           
1 57260U 23094AU  26003.41854611  .00000981  00000+0  87728-4 0  9992
2 57260  43.0067  11.7997 0001416 275.4331  84.6350 15.02535317138092
STARLINK-5485           
1 57261U 23094AV  26003.41829213 -.00000008  00000+0  14506-4 0  9998
2 57261  43.0062  24.8068 0001430 277.8241  82.2439 15.02530137137304
STARLINK-5504           
1 57262U 23094AW  26003.42742788  .00003292  00000+0  25875-3 0  9998
2 57262  43.0080  11.8697 0001339 268.0627  92.0062 15.02524639137454
STARLINK-5509           
1 57263U 23094AX  26003.41718037  .00001950  00000+0  15934-3 0  9992
2 57263  43.0057  24.7977 0001413 283.2792  76.7893 15.02547523137300
STARLINK-5858           
1 57264U 23094AY  26003.41410843 -.00000075  00000+0  95528-5 0  9994
2 57264  43.0068  11.7668 0001735 278.6466  81.4180 15.02535128137455
STARLINK-5890           
1 57265U 23094AZ  26003.50002314  .01266724  00000+0  23747-1 0  9990
2 57265  43.0026   4.0399 0001948 295.2016   1.6204 15.44936469  5632
STARLINK-30198          
1 57290U 23096A   26003.28014671  .00000630  00000+0  61718-4 0  9998
2 57290  43.0025 218.9680 0001066 272.3236  87.7484 15.02536336137778
STARLINK-30239          
1 57291U 23096B   26003.27681547  .00000797  00000+0  74031-4 0  9996
2 57291  43.0030 218.9392 0001143 266.0073  94.0638 15.02537356137775
